IRIDIUM 155             
1 43573U 18061E   25133.54678822  .00000014  00000+0 -21757-5 0  9996
2 43573  86.4006 223.6337 0002271 103.4106 256.7342 14.34217831356075
IRIDIUM 154             
1 43574U 18061F   25133.52775968  .00000082  00000+0  22116-4 0  9997
2 43574  86.4008 223.7550 0002285  96.3813 263.7643 14.34216912356123
IRIDIUM 163             
1 43575U 18061G   25133.50873246  .00000025  00000+0  20045-5 0  9991
2 43575  86.4005 223.6910 0002118  98.0867 262.0569 14.34217811356097
IRIDIUM 156             
1 43576U 18061H   25133.48336296  .00000163  00000+0  51202-4 0  9999
2 43576  86.4006 223.7085 0002519 102.7561 257.3916 14.34217905356088
IRIDIUM 164             
1 43577U 18061J   25133.53410306 -.00000070  00000+0 -32038-4 0  9996
2 43577  86.4007 223.7212 0002372  91.9632 268.1836 14.34217650356131
IRIDIUM 159             
1 43578U 18061K   25133.50239068  .00000280  00000+0  93002-4 0  9997
2 43578  86.4005 223.6796 0002172  90.1341 270.0103 14.34217686356095
IRIDIUM 180             
1 43922U 19002A   25133.50188446  .00000126  00000+0  37934-4 0  9990
2 43922  86.3987 160.6673 0002214  93.0348 267.1101 14.34218826331709
IRIDIUM 176             
1 43923U 19002B   25133.44089348  .00000909  00000+0  14019-3 0  9992
2 43923  86.6112 160.6894 0002047 107.0845 253.0596 14.72266985340433
IRIDIUM 168             
1 43924U 19002C   25133.49554139  .00000192  00000+0  61419-4 0  9994
2 43924  86.3989 160.7359 0002328  92.3193 267.8269 14.34218969331688
IRIDIUM 173             
1 43925U 19002D   25133.34331874  .00000267  00000+0  88374-4 0  9990
2 43925  86.3985 160.7049 0002195  95.6767 264.4679 14.34219754331643
IRIDIUM 169             
1 43926U 19002E   25133.51522610  .00000354  00000+0  10925-3 0  9993
2 43926  86.4276 192.2031 0002618 128.5665 231.5769 14.38611036332764
IRIDIUM 172             
1 43927U 19002F   25133.54628169  .00000211  00000+0  68260-4 0  9991
2 43927  86.3986 160.6268 0002041  87.5772 272.5658 14.34218978331682
IRIDIUM 175             
1 43928U 19002G   25133.43580665  .00000509  00000+0  76662-4 0  9993
2 43928  86.1473 115.1864 0003306 100.4707 259.6882 14.72250953340425
IRIDIUM 171             
1 43929U 19002H   25133.52725460  .00000190  00000+0  60863-4 0  9990
2 43929  86.3996 160.8965 0002668  91.0215 269.1287 14.34219638331671
IRIDIUM 170             
1 43930U 19002J   25133.51507420  .00000861  00000+0  13258-3 0  9995
2 43930  86.6112 160.6633 0002625 100.4565 259.6948 14.72251383340451
IRIDIUM 167             
1 43931U 19002K   25133.52091279  .00000117  00000+0  34724-4 0  9993
2 43931  86.3987 160.6564 0002775  97.3442 262.8069 14.34218981331675
IRIDIUM 181             
1 56726U 23068S   25133.49183774  .00000403  00000+0  11379-3 0  9992
2 56726  86.4545 223.7121 0002834  88.0440 272.1085 14.43316052104783
IRIDIUM 177             
1 56727U 23068T   25133.32385884  .00000569  00000+0  71301-4 0  9996
2 56727  86.1980 158.6734 0002633  93.2492 266.9031 14.80240440107213
IRIDIUM 174             
1 56728U 23068U   25133.57113579  .00000930  00000+0  14190-3 0  9998
2 56728  86.6115 160.7469 0002489 105.1135 255.0358 14.72748370107222
IRIDIUM 178             
1 56729U 23068V   25133.44816917  .00001261  00000+0  16257-3 0  9995
2 56729  86.6595 192.3232 0002258  89.8547 270.2933 14.80236206107231
IRIDIUM 179             
1 56730U 23068W   25133.23998906  .00001016  00000+0  13026-3 0  9992
2 56730  86.6841 200.1744 0002498  99.0940 261.0564 14.80242882107201
